******************************************************************************* Revised: Jul 31, 2013              Mercury                             199 / 1 GEOPHYSICAL DATA (updated 2008-Feb-07):  Mean radius (km)      =  2440(+-1)     Density (g cm^-3)     =  5.427  Mass (10^23 kg )      =     3.302      Flattening, f         =    Volume (x10^10 km^3)  =     6.085      Semi-major axis       =   Sidereal rot. period  =    58.6462 d   Rot. Rate (x10^5 s)   =  0.124001  Mean solar day        =   175.9421 d   Polar gravity ms^-2   =  Mom. of Inertia       =     0.33       Equ. gravity  ms^-2   =  3.701       Core radius (km)      = ~1600          Potential Love # k2   =  GM (km^3 s^-2)        = 22032.09       Equatorial Radius, Re =    2440 km  GM 1-sigma (km^3 s^-2)=   +-0.91       Mass ratio (sun/plnt) = 6023600   Atmos. pressure (bar) =                Max. angular diam.    = 11.0"     Mean Temperature (K)  =                Visual mag. V(1,0)    = -0.42   Geometric albedo      =   0.106        Obliquity to orbit[1] = 2.11' +/- 0.1'    Sidereal orb. per.    =   0.2408467 y  Mean Orbit vel.  km/s = 47.362   Sidereal orb. per.    =  87.969257  d  Escape vel. km/s      =  4.435  Hill's sphere rad. Rp =  94.4          Planetary Solar Const = 9936.9 (Wm^2)[1] Margot et al., Science 316, 2007*******************************************************************************  *******************************************************************************Ephemeris / WWW_USER Fri Oct 20 06:52:21 2017 Pasadena, USA      / Horizons    *******************************************************************************Target body name: Mercury (199)                   {source: DE431mx}Center body name: Solar System Barycenter (0)     {source: DE431mx}Center-site name: BODY CENTER*******************************************************************************Start time      : A.D. 2017-Oct-20 00:00:00.0000 TDBStop  time      : A.D. 2017-Oct-21 00:00:00.0000 TDBStep-size       : 1440 minutes*******************************************************************************Center geodetic : 0.00000000,0.00000000,0.0000000 {E-lon(deg),Lat(deg),Alt(km)}Center cylindric: 0.00000000,0.00000000,0.0000000 {E-lon(deg),Dxy(km),Dz(km)}Center radii    : (undefined)                                                  Output units    : AU-D                                                         Output type     : GEOMETRIC cartesian statesOutput format   : 3 (position, velocity, LT, range, range-rate)Reference frame : ICRF/J2000.0                                                 Coordinate systm: Ecliptic and Mean Equinox of Reference Epoch                 *******************************************************************************JDTDB   X     Y     Z   VX    VY    VZ   LT    RG    RR*******************************************************************************$$SOE2458046.500000000 = A.D. 2017-Oct-20 00:00:00.0000 TDB  X =-2.848623795998002E-01 Y =-3.462144368841656E-01 Z =-2.553868615340488E-03 VX= 1.609327711354721E-02 VY=-1.647034944460669E-02 VZ=-2.823041041215458E-03 LT= 2.589452428916350E-03 RG= 4.483497896321408E-01 RR= 2.509454104938866E-032458047.500000000 = A.D. 2017-Oct-21 00:00:00.0000 TDB  X =-2.683268361018381E-01 Y =-3.621236447639992E-01 Z =-5.371630620452830E-03 VX= 1.696680077861595E-02 VY=-1.534282148961795E-02 VZ=-2.811044424425393E-03 LT= 2.603225943938759E-03 RG= 4.507345998313290E-01 RR= 2.259534457249249E-03$$EOE*******************************************************************************Coordinate system description:  Ecliptic and Mean Equinox of Reference Epoch    Reference epoch: J2000.0    XY-plane: plane of the Earth's orbit at the reference epoch              Note: obliquity of 84381.448 arcseconds wrt ICRF equator (IAU76)    X-axis  : out along ascending node of instantaneous plane of the Earth's              orbit and the Earth's mean equator at the reference epoch    Z-axis  : perpendicular to the xy-plane in the directional (+ or -) sense              of Earth's north pole at the reference epoch.  Symbol meaning [1 au= 149597870.700 km, 1 day= 86400.0 s]:    JDTDB    Julian Day Number, Barycentric Dynamical Time      X      X-component of position vector (au)                                     Y      Y-component of position vector (au)                                     Z      Z-component of position vector (au)                                     VX     X-component of velocity vector (au/day)                                 VY     Y-component of velocity vector (au/day)                                 VZ     Z-component of velocity vector (au/day)                                 LT     One-way down-leg Newtonian light-time (day)                             RG     Range; distance from coordinate center (au)                             RR     Range-rate; radial velocity wrt coord. center (au/day)            Geometric states/elements have no aberrations applied. Computations by ...     Solar System Dynamics Group, Horizons On-Line Ephemeris System     4800 Oak Grove Drive, Jet Propulsion Laboratory     Pasadena, CA  91109   USA     Information: http://ssd.jpl.nasa.gov/     Connect    : telnet://ssd.jpl.nasa.gov:6775  (via browser)                  http://ssd.jpl.nasa.gov/?horizons                  telnet ssd.jpl.nasa.gov 6775    (via command-line)     Author     : Jon.D.Giorgini@jpl.nasa.gov*******************************************************************************